GPS BIIR-2  (PRN 13)    
1 24876U 97035A   16279.29171855  .00000010  00000-0  00000+0 0  9994
2 24876  55.6213 237.1504 0037871 112.4036 247.9791  2.00562065140714
GPS BIIR-3  (PRN 11)    
1 25933U 99055A   16279.41064407 -.00000006  00000-0  00000+0 0  9997
2 25933  51.4609  88.8155 0165864  90.6063 283.6932  2.00562160124538
GPS BIIR-4  (PRN 20)    
1 26360U 00025A   16279.38365963  .00000002  00000-0  00000+0 0  9993
2 26360  53.0816 165.5207 0044687  82.9592   8.7309  2.00572756120231
GPS BIIR-5  (PRN 28)    
1 26407U 00040A   16279.46725983 -.00000078  00000-0  00000+0 0  9997
2 26407  56.6871 355.0800 0202022 267.8250 168.4276  2.00569126118907
GPS BIIR-6  (PRN 14)    
1 26605U 00071A   16279.58006848  .00000010  00000-0  00000+0 0  9991
2 26605  55.1912 234.9685 0089679 249.1277 174.0915  2.00573229116502
GPS BIIR-7  (PRN 18)    
1 26690U 01004A   16278.32642882  .00000004  00000-0  00000+0 0  9990
2 26690  53.0079 168.5232 0174708 253.8895 104.2601  2.00557869114881
GPS BIIR-8  (PRN 16)    
1 27663U 03005A   16279.32153995 -.00000078  00000-0  00000+0 0  9999
2 27663  56.7593 354.8102 0085895  20.6320  68.7526  2.00575751100267
GPS BIIR-9  (PRN 21)    
1 27704U 03010A   16279.55445001  .00000013  00000-0  00000+0 0  9996
2 27704  53.7161 108.7984 0235288 259.5849 326.8396  2.00546771 99065
GPS BIIR-10 (PRN 22)    
1 28129U 03058A   16278.99099339  .00000002  00000-0  00000+0 0  9994
2 28129  52.8895 168.5166 0076126 253.8956 105.3458  2.00558706 93757
GPS BIIR-11 (PRN 19)    
1 28190U 04009A   16279.52526505 -.00000032  00000-0  00000+0 0  9993
2 28190  55.8604  56.0138 0102931  49.1985 340.2317  2.00568814 91942
GPS BIIR-12 (PRN 23)    
1 28361U 04023A   16279.43585339  .00000007  00000-0  00000+0 0  9990
2 28361  54.1674 230.3452 0112868 216.1535  22.5622  2.00571195 90027
GPS BIIR-13 (PRN 02)    
1 28474U 04045A   16279.32156478  .00000013  00000-0  00000+0 0  9992
2 28474  54.1020 108.1762 0161757 241.1005 278.1022  2.00566461 87382
GPS BIIRM-1 (PRN 17)    
1 28874U 05038A   16279.51634022 -.00000036  00000-0  00000+0 0  9992
2 28874  56.0234  53.2396 0114818 250.2668 153.1993  2.00554621 80791
GPS BIIRM-2 (PRN 31)    
1 29486U 06042A   16279.58122579 -.00000015  00000-0  00000+0 0  9991
2 29486  55.5646 292.4684 0084597 336.9847  34.1130  2.00576565 73514
GPS BIIRM-3 (PRN 12)    
1 29601U 06052A   16279.01118352 -.00000078  00000-0  00000+0 0  9992
2 29601  56.7309 353.7445 0058684  43.4849 317.0320  2.00567071 72401
GPS BIIRM-4 (PRN 15)    
1 32260U 07047A   16278.32464424 -.00000002  00000-0  00000+0 0  9996
2 32260  53.2953 226.9648 0084474  27.7951 332.6351  2.00562710 65789
GPS BIIRM-5 (PRN 29)    
1 32384U 07062A   16279.48528532 -.00000035  00000-0  00000+0 0  9995
2 32384  56.0819  53.8057 0005506 340.1048 272.3785  2.00556324 64534
GPS BIIRM-6 (PRN 07)    
1 32711U 08012A   16279.23307145 -.00000018  00000-0  00000+0 0  9994
2 32711  55.2900 291.9133 0101494 210.6769 148.7505  2.00569216 62712
GPS BIIRM-8 (PRN 05)    
1 35752U 09043A   16279.55698868  .00000002  00000-0  00000+0 0  9999
2 35752  54.2279 169.8430 0046902  27.5111 232.4307  2.00570795 52308
GPS BIIF-1  (PRN 25)    
1 36585U 10022A   16279.11876921 -.00000078  00000-0  00000+0 0  9997
2 36585  56.0500 350.7346 0054348  42.9798   4.1116  2.00562064 46543
GPS BIIF-2  (PRN 01)    
1 37753U 11036A   16279.44301591  .00000017  00000-0  00000+0 0  9995
2 37753  55.3150 110.9415 0058078  29.9777 341.5119  2.00560285 38234
GPS BIIF-3  (PRN 24)    
1 38833U 12053A   16278.91711811 -.00000020  00000-0  00000+0 0  9991
2 38833  54.3199 289.0949 0046565  19.8134 340.3883  2.00557543 29305
GPS BIIF-4  (PRN 27)    
1 39166U 13023A   16279.27420911 -.00000042  00000-0  00000+0 0  9991
2 39166  55.7332  50.3468 0037639  16.2060 343.9129  2.00566474 24833
GPS BIIF-5  (PRN 30)    
1 39533U 14008A   16279.27180898 -.00000022  00000-0  00000+0 0  9998
2 39533  54.4749 294.3345 0024161 186.2578 173.7405  2.00552929 19202
GPS BIIF-6  (PRN 06)    
1 39741U 14026A   16279.05870782  .00000015  00000-0  00000+0 0  9994
2 39741  55.3039 110.4754 0004332 267.6796  92.3322  2.00551511 17478
GPS BIIF-7  (PRN 09)    
1 40105U 14045A   16279.14435019  .00000006  00000-0  00000+0 0  9991
2 40105  54.6884 230.1269 0003632 123.9640 236.0549  2.00551827 15925
GPS BIIF-8  (PRN 03)    
1 40294U 14068A   16279.01784885  .00000005  00000-0  00000+0 0  9998
2 40294  54.9712 170.6470 0002218 331.4213  28.6456  2.00571008 14148
GPS BIIF-9  (PRN 26)    
1 40534U 15013A   16278.66061445 -.00000080  00000-0  00000+0 0  9990
2 40534  55.0132 350.1073 0010887 339.9070  20.1079  2.00573733 11201
GPS BIIF-10  (PRN 08)   
1 40730U 15033A   16279.31898773 -.00000043  00000-0  00000+0 0  9994
2 40730  55.2693  50.1319 0019891 297.9598  61.8392  2.00553920  8971
GPS BIIF-11  (PRN 10)   
1 41019U 15062A   16278.87024630  .00000005  00000-0  00000+0 0  9997
2 41019  54.9834 170.4298 0018402 201.6555 158.3457  2.00562796  6781
GPS BIIF-12  (PRN 32)   
1 41328U 16007A   16278.95532271  .00000006  00000-0  00000+0 0  9995
2 41328  54.9498 230.2512 0008132 235.7785 124.1278  2.00566090  4844
